73P-AJ/Schwassmann-Wachmann,e,11.385,70.041,198.663,3.06262,0.183892,0.6933024,359.864,06/08.0/2006,2000,g  9.0,4.0
# From MPC 56799
73P-AK/Schwassmann-Wachmann,e,11.389,69.784,198.822,3.06244,0.183909,0.6933024,359.927,06/08.0/2006,2000,g  9.0,4.0
# From MPC 56799
73P-AL/Schwassmann-Wachmann,e,11.395,69.843,198.857,3.06140,0.184003,0.6933024,359.916,06/08.0/2006,2000,g  9.0,4.0
# From MPC 56799
73P-AM/Schwassmann-Wachmann,e,11.394,69.876,198.815,3.06205,0.183944,0.6933024,359.951,06/08.0/2006,2000,g  9.0,4.0
# From MPC 56799
73P-AN/Schwassmann-Wachmann,e,11.393,69.870,198.820,3.06185,0.183962,0.6933024,359.940,06/08.0/2006,2000,g  9.0,4.0
# From MPC 56799
73P-AO/Schwassmann-Wachmann,e,11.210,71.286,197.007,3.07823,0.182496,0.6933024,359.853,06/07.0/2006,2000,g  9.0,4.0
# From MPC 56799
73P-AP/Schwassmann-Wachmann,e,11.393,69.895,198.794,3.06223,0.183928,0.6933024,359.874,06/06.0/2006,2000,g  9.0,4.0
# From MPC 56799
73P-AQ/Schwassmann-Wachmann,e,11.387,69.911,198.770,3.06230,0.183921,0.6933024,359.831,06/07.0/2006,2000,g  9.0,4.0
# From MPC 56799
73P-AR/Schwassmann-Wachmann,e,11.385,69.946,198.722,3.06285,0.183872,0.6933024,359.847,06/06.0/2006,2000,g  9.0,4.0
# From MPC 56799
73P-AS/Schwassmann-Wachmann,e,11.392,69.906,198.773,3.06237,0.183915,0.6933024,359.938,06/06.0/2006,2000,g  9.0,4.0
# From MPC 56799
73P-AT/Schwassmann-Wachmann,e,11.391,69.901,198.778,3.06248,0.183905,0.6933024,359.958,06/06.0/2006,2000,g  9.0,4.0
# From MPC 56799
73P-AU/Schwassmann-Wachmann,e,11.385,69.928,198.744,3.06261,0.183894,0.6933024,359.983,06/08.0/2006,2000,g  9.0,4.0
# From MPC 56800
73P-AV/Schwassmann-Wachmann,e,11.388,69.945,198.751,3.06263,0.183892,0.6933024,359.910,06/06.0/2006,2000,g  9.0,4.0
# From MPC 56800
73P-AW/Schwassmann-Wachmann,e,11.377,69.982,198.673,3.06318,0.183843,0.6933024,359.859,06/07.0/2006,2000,g  9.0,4.0
# From MPC 56800
73P-AX/Schwassmann-Wachmann,e,11.388,69.915,198.757,3.06205,0.183944,0.6933024,359.902,06/09.0/2006,2000,g  9.0,4.0
# From MPC 56800
73P-AY/Schwassmann-Wachmann,e,11.385,69.923,198.750,3.06223,0.183927,0.6933024,359.860,06/08.0/2006,2000,g  9.0,4.0
# From MPC 56800
73P-AZ/Schwassmann-Wachmann,e,11.371,70.002,198.644,3.06367,0.183798,0.6933024,359.905,06/06.0/2006,2000,g  9.0,4.0
# From MPC 56800
73P-BA/Schwassmann-Wachmann,e,11.364,70.042,198.588,3.06413,0.183756,0.6933024,359.920,06/06.0/2006,2000,g  9.0,4.0
# From MPC 56800
73P-BB/Schwassmann-Wachmann,e,11.395,69.882,198.807,3.06205,0.183944,0.6933024,359.984,06/07.0/2006,2000,g  9.0,4.0
# From MPC 56800
73P-BC/Schwassmann-Wachmann,e,11.391,69.901,198.778,3.06235,0.183917,0.6933024,359.877,06/06.0/2006,2000,g  9.0,4.0
# From MPC 56800
73P-BD/Schwassmann-Wachmann,e,11.352,70.085,198.503,3.06483,0.183694,0.6933024,359.923,06/06.0/2006,2000,g  9.0,4.0
# From MPC 56800
73P-BE/Schwassmann-Wachmann,e,11.405,69.841,198.861,3.06171,0.183975,0.6933024,359.841,06/06.0/2006,2000,g  9.0,4.0
# From MPC 56800
73P-BF/Schwassmann-Wachmann,e,11.390,69.908,198.752,3.06223,0.183928,0.6933024,359.818,06/06.0/2006,2000,g  9.0,4.0
# From MPC 56800
73P-BG/Schwassmann-Wachmann,e,11.384,69.925,198.750,3.06214,0.183936,0.6933024,359.864,06/08.0/2006,2000,g  9.0,4.0
# From MPC 56801
73P-BH/Schwassmann-Wachmann,e,11.410,69.752,198.947,3.06079,0.184058,0.6933024,359.895,06/08.0/2006,2000,g  9.0,4.0
# From MPC 56801
73P-BI/Schwassmann-Wachmann,e,11.404,69.819,198.877,3.06179,0.183967,0.6933024,359.882,06/08.0/2006,2000,g  9.0,4.0
# From MPC 56801
73P-BJ/Schwassmann-Wachmann,e,11.389,69.905,198.776,3.06209,0.183941,0.6933024,359.877,06/08.0/2006,2000,g  9.0,4.0
# From MPC 56801
73P-BK/Schwassmann-Wachmann,e,11.379,69.970,198.698,3.06264,0.183891,0.6933024,359.837,06/08.0/2006,2000,g  9.0,4.0
# From MPC 56801
73P-BL/Schwassmann-Wachmann,e,11.385,69.930,198.739,3.06239,0.183914,0.6933024,359.837,06/08.0/2006,2000,g  9.0,4.0
# From MPC 56801
73P-BM/Schwassmann-Wachmann,e,11.364,70.086,198.546,3.06367,0.183798,0.6933024,359.827,06/08.0/2006,2000,g  9.0,4.0
# From MPC 56801
73P-BN/Schwassmann-Wachmann,e,11.398,69.871,198.815,3.06180,0.183967,0.6933024,359.963,06/08.0/2006,2000,g  9.0,4.0
# From MPC 56801
73P-BO/Schwassmann-Wachmann,e,11.390,69.903,198.765,3.06206,0.183943,0.6933024,359.952,06/08.0/2006,2000,g  9.0,4.0
# From MPC 56801
73P-BP/Schwassmann-Wachmann,e,11.395,69.881,198.807,3.06196,0.183952,0.6933024,359.944,06/08.0/2006,2000,g  9.0,4.0
# From MPC 56801
73P-BQ/Schwassmann-Wachmann,e,11.404,69.836,198.862,3.06166,0.183979,0.6933024,359.945,06/08.0/2006,2000,g  9.0,4.0
# From MPC 56957
73P-BR/Schwassmann-Wachmann,e,11.389,69.910,198.774,3.06233,0.183918,0.6933024,359.971,06/06.0/2006,2000,g  9.0,4.0
# From MPC 56957
73P-BS/Schwassmann-Wachmann,e,11.399,69.885,198.814,3.06224,0.183927,0.6933024,359.847,06/05.0/2006,2000,g  9.0,4.0
# From MPC106348
73P-BT/Schwassmann-Wachmann,e,11.0941,198.5753,70.1050,3.082663,0.1821021,0.69188699,132.3652,08/26.0/2024,2000,g 11.5,6.0
# From MPEC 2022-P18
73P-BU/Schwassmann-Wachmann,e,11.0177,199.4755,70.8265,2.869032,0.2028154,0.67046770,148.0864,08/26.0/2024,2000,g 19.0,4.0
# From MPEC 2022-X67
73P-BV/Schwassmann-Wachmann,e,11.3561,69.3881,198.9229,3.127854,0.1781699,0.69953484,129.6123,08/26.0/2024,2000,g 19.0,4.0
# From MPEC 2022-R15
73P-BW/Schwassmann-Wachmann,e,10.2717,193.5589,71.1689,4.533698,0.1020999,0.78799482,74.6364,08/26.0/2024,2000,g 18.2,4.0
# From MPEC 2023-A50
73P-BX/Schwassmann-Wachmann,e,11.3670,69.3849,198.9674,3.108166,0.1798654,0.69716647,130.8079,08/26.0/2024,2000,g 17.5,4.0
# From MPEC 2022-R15
73P-BY/Schwassmann-Wachmann,e,11.0907,198.7295,70.1458,3.024235,0.1874048,0.68578965,136.8095,08/26.0/2024,2000,g 17.4,4.0
# From MPEC 2024-EF7
74P/Smirnova-Chernykh,e,6.4191,53.7187,103.3839,4.912625,0.0905177,0.03407130,263.5013,08/26.0/2024,2000,g  5.0,6.0
# From CCO 7
75D/Kohoutek,e,5.9262,269.5525,175.5617,3.537192,0.1481549,0.49941648,187.6551,08/26.0/2024,2000,g  9.5,6.0
# From MPEC 2022-K19
76P/West-Kohoutek-Ikemura,e,30.4885,84.1121,359.9682,3.468552,0.1525745,0.53937427,269.1356,08/26.0/2024,2000,g  8.0,12.0
# From MPEC 2024-Q42
77P/Longmore,e,24.3196,14.7583,196.6620,3.621573,0.1430073,0.35166022,73.0936,08/26.0/2024,2000,g  7.0,8.0
# From MPEC 2024-Q20
78P/Gehrels,e,6.2575,210.5162,192.7136,3.734995,0.1365429,0.46316103,268.7918,08/26.0/2024,2000,g  5.5,8.0
# From MPEC 2024-PC5
79P/duToit-Hartley,e,3.1489,280.5160,281.7678,2.943331,0.1951846,0.61919569,64.5460,08/26.0/2024,2000,g 16.0,4.0
# From MPEC 2024-Q20
80P/Peters-Hartley,e,29.9252,259.7769,339.2873,4.022581,0.1221650,0.59801290,76.5209,08/26.0/2024,2000,g  9.0,8.0
# From MPEC 2024-Q20
81P/Wild,e,3.2372,136.0938,41.5734,3.452327,0.1536513,0.53735368,95.1720,08/26.0/2024,2000,g  7.0,6.0
# From MPC133426
82P/Gehrels,e,1.1292,239.2250,226.4382,4.132013,0.1173442,0.12258228,264.7195,08/26.0/2024,2000,g 15.0,4.0
# From NK 932
83D/Russell,e,17.8274,226.3022,334.4132,3.843788,0.1307871,0.44129356,155.8837,08/26.0/2024,2000,g  9.0,4.0
# From MPEC 2020-FB5
84P/Giclas,e,7.5518,108.1514,281.6673,3.550119,0.1473464,0.51594325,227.3408,08/26.0/2024,2000,g  9.5,8.0
# From unp
85D/Boethin,e,4.1741,65.2855,333.0823,5.044938,0.0869802,0.77619682,129.3918,08/26.0/2024,2000,g  6.5,8.0
# From MPEC 2022-YB4
86P/Wild,e,15.5316,72.0814,180.8787,3.632419,0.1423673,0.36789828,132.4763,08/26.0/2024,2000,g 11.0,6.0
# From MPEC 2020-SI8
87P/Bus,e,2.7030,186.2030,51.6443,4.316659,0.1098962,0.22831873,176.6458,08/26.0/2024,2000,g  7.2,10.0
# From MPEC 2024-C04
88P/Howell,e,4.3820,56.6671,235.9063,3.107598,0.1799148,0.56317841,257.4752,08/26.0/2024,2000,g 11.0,6.0
# From MPEC 2024-Q42
89P/Russell,e,12.0721,41.3442,250.4010,3.750937,0.1356733,0.40765443,20.6768,08/26.0/2024,2000,g 11.5,6.0
# From MPEC 2022-K19
90P/Gehrels,e,9.6453,13.2071,29.1393,6.052652,0.0661890,0.51101525,173.4249,08/26.0/2024,2000,g  8.5,6.0
# From MPEC 2023-VM5
91P/Russell,e,16.7019,242.7106,358.9603,4.038499,0.1214434,0.28652235,179.1669,08/26.0/2024,2000,g  7.5,6.0
# From MPEC 2014-J58
92P/Sanguin,e,19.4891,181.3738,163.7976,5.343151,0.0798009,0.66034256,275.9596,08/26.0/2024,2000,g 12.0,6.0
# From MPEC 2024-Q42
93P/Lovas,e,12.2064,339.5677,74.9779,4.376229,0.1076599,0.61402368,293.8061,08/26.0/2024,2000,g  9.5,6.0
# From MPEC 2024-Q42
94P/Russell,e,6.1879,70.8519,92.3896,3.510449,0.1498511,0.36576079,69.3739,08/26.0/2024,2000,g  9.0,6.0
# From MPC 75717
95P/Chiron,e,6.9238,209.1974,339.3739,13.70682,0.0194222,0.37727407,203.9270,08/26.0/2024,2000,g  6.5,2.0
# From MPEC 2023-N01
96P/Machholz,e,57.5663,93.9584,14.7386,3.030963,0.1867812,0.96165533,106.9975,08/26.0/2024,2000,g 13.0,4.8
# From MPC106348
96P-B/Machholz,e,57.5027,14.6844,93.9672,3.030050,0.1868656,0.96167612,107.0515,08/26.0/2024,2000,g 13.0,4.8
# From MPC103849
96P-C/Machholz,e,58.5311,94.3495,15.5380,3.011920,0.1885553,0.95889850,359.8715,07/14.0/2012,2000,g  9.0,4.0
# From MPEC 2024-GJ3
97P/Metcalf-Brewington,e,17.9457,184.0801,230.1358,4.767704,0.0946760,0.46023092,87.2872,08/26.0/2024,2000,g  5.5,6.0
# From MPEC 2021-W31
98P/Takamizawa,e,10.5837,114.6014,157.7123,3.787995,0.1336873,0.56334562,177.8045,08/26.0/2024,2000,g  9.0,8.0
# From MPEC 2024-Q42
99P/Kowal,e,4.3392,28.0858,174.6141,6.095758,0.0654881,0.22855256,56.9338,08/26.0/2024,2000,g  4.5,6.0
# From MPEC 2023-OA6
100P/Hartley,e,25.5673,37.6856,181.9603,3.430562,0.1551158,0.41149933,115.7772,08/26.0/2024,2000,g  9.0,8.0
# From MPEC 2024-Q42
101P/Chernykh,e,5.0488,116.1464,277.9229,5.814849,0.0702905,0.59607891,118.5481,08/26.0/2024,2000,g 10.0,4.8
# From MPC105241
101P-B/Chernykh,e,5.0500,278.5295,115.5426,5.830361,0.0700101,0.59628963,116.8311,08/26.0/2024,2000,g  9.0,4.0
# From MPEC 2022-C56
102P/Shoemaker,e,25.8646,339.4073,20.6736,3.819030,0.1320610,0.45641292,173.2327,08/26.0/2024,2000,g  6.5,8.0
# From MPEC 2024-NE4
103P/Hartley,e,13.6105,219.7501,181.3098,3.474746,0.1521666,0.69369103,48.4651,08/26.0/2024,2000,g  8.5,8.0
# From MPEC 2023-G31
104P/Kowal,e,5.7026,207.2032,227.2691,3.208705,0.1714784,0.66591701,164.0900,08/26.0/2024,2000,g 16.0,4.0
# From MPEC 2024-F34
